API VERSION: 1.0
API SOURCE: NASA/JPL Horizons API

*******************************************************************************
 Revised: April 12, 2021                Venus                           299 / 2
 
 PHYSICAL DATA (updated 2020-Oct-19):
  Vol. Mean Radius (km) =  6051.84+-0.01 Density (g/cm^3)      =  5.204
  Mass x10^23 (kg)      =    48.685      Volume (x10^10 km^3)  = 92.843
  Sidereal rot. period  =   243.018484 d Sid. Rot. Rate (rad/s)= -0.00000029924
  Mean solar day        =   116.7490 d   Equ. gravity  m/s^2   =  8.870
  Mom. of Inertia       =     0.33       Core radius (km)      = ~3200
  Geometric Albedo      =     0.65       Potential Love # k2   = ~0.25
  GM (km^3/s^2)         = 324858.592     Equatorial Radius, Re = 6051.893 km
  GM 1-sigma (km^3/s^2) =    +-0.006     Mass ratio (Sun/Venus)= 408523.72
  Atmos. pressure (bar) =  90            Max. angular diam.    =   60.2"
  Mean Temperature (K)  = 735            Visual mag. V(1,0)    =   -4.40
  Obliquity to orbit    = 177.3 deg      Hill's sphere rad.,Rp =  167.1
  Sidereal orb. per., y =   0.61519726   Orbit speed, km/s     =   35.021
  Sidereal orb. per., d = 224.70079922   Escape speed, km/s    =   10.361
                                 Perihelion  Aphelion    Mean
  Solar Constant (W/m^2)         2759         2614       2650
  Maximum Planetary IR (W/m^2)    153         153         153
  Minimum Planetary IR (W/m^2)    153         153         153
*******************************************************************************


*******************************************************************************
Ephemeris / WWW_USER Sat Oct  5 22:12:41 2024 Pasadena, USA      / Horizons
*******************************************************************************
Target body name: Venus (299)                     {source: DE441}
Center body name: Earth (399)                     {source: DE441}
Center-site name: BODY CENTER
*******************************************************************************
Start time      : A.D. 2024-Mar-19 00:00:00.0000 TDB
Stop  time      : A.D. 2024-Apr-19 00:00:00.0000 TDB
Step-size       : 60 minutes
*******************************************************************************
Center geodetic : 0.0, 0.0, 0.0                   {E-lon(deg),Lat(deg),Alt(km)}
Center cylindric: 0.0, 0.0, 0.0                   {E-lon(deg),Dxy(km),Dz(km)}
Center radii    : 6378.137, 6378.137, 6356.752 km {Equator_a, b, pole_c}
Output units    : KM-S
Calendar mode   : Mixed Julian/Gregorian
Output type     : GEOMETRIC cartesian states
Output format   : 3 (position, velocity, LT, range, range-rate)
EOP file        : eop.241004.p241228
EOP coverage    : DATA-BASED 1962-JAN-20 TO 2024-OCT-04. PREDICTS-> 2024-DEC-27
Reference frame : Ecliptic of J2000.0
*******************************************************************************
JDTDB
   X     Y     Z
   VX    VY    VZ
   LT    RG    RR
*******************************************************************************
$$SOE
2460416.291666667 = A.D. 2024-Apr-15 19:00:00.0000 TDB 
 X = 2.430143558698212E+08 Y = 5.518850835381670E+07 Z =-6.382879890220605E+06
 VX=-9.330098748103582E+00 VY= 6.158697276532688E+01 VZ= 2.882007882893838E-01
 LT= 8.315217659484761E+02 RG= 2.492839540941943E+08 RR= 4.531802604633426E+00
2460416.333333333 = A.D. 2024-Apr-15 20:00:00.0000 TDB 
 X = 2.429806610366195E+08 Y = 5.541021157237017E+07 Z =-6.381838119006950E+06
 VX=-9.389252536525079E+00 VY= 6.158147212695065E+01 VZ= 2.905609432078613E-01
 LT= 8.315761660017703E+02 RG= 2.493002628198867E+08 RR= 4.528600515115118E+00
2460416.375000000 = A.D. 2024-Apr-15 21:00:00.0000 TDB 
 X = 2.429467532551492E+08 Y = 5.563189488214415E+07 Z =-6.380787851818824E+06
 VX=-9.448403332457154E+00 VY= 6.157591233307701E+01 VZ= 2.929207736983450E-01
 LT= 8.316305276018427E+02 RG= 2.493165600175933E+08 RR= 4.525398167399270E+00
2460416.416666667 = A.D. 2024-Apr-15 22:00:00.0000 TDB 
 X = 2.429126325362836E+08 Y = 5.585355807018758E+07 Z =-6.379729089828592E+06
 VX=-9.507551080238734E+00 VY= 6.157029338856187E+01 VZ= 2.952802772951912E-01
 LT= 8.316848507455699E+02 RG= 2.493328456863775E+08 RR= 4.522195557604547E+00
2460416.458333333 = A.D. 2024-Apr-15 23:00:00.0000 TDB 
 X = 2.428782988910961E+08 Y = 5.607520092356686E+07 Z =-6.378661834217535E+06
 VX=-9.566695724210595E+00 VY= 6.156461529826016E+01 VZ= 2.976394515272496E-01
 LT= 8.317391354297810E+02 RG= 2.493491198252889E+08 RR= 4.518992681854056E+00
2460416.500000000 = A.D. 2024-Apr-16 00:00:00.0000 TDB 
 X = 2.428437523308606E+08 Y = 5.629682322936592E+07 Z =-6.377586086175803E+06
 VX=-9.625837208714927E+00 VY= 6.155887806702657E+01 VZ= 2.999982939179304E-01
 LT= 8.317933816512590E+02 RG= 2.493653824333630E+08 RR= 4.515789536275697E+00
2460416.541666667 = A.D. 2024-Apr-16 01:00:00.0000 TDB 
 X = 2.428089928670515E+08 Y = 5.651842477468614E+07 Z =-6.376501846902514E+06
 VX=-9.684975478093364E+00 VY= 6.155308169971103E+01 VZ= 3.023568019844909E-01
 LT= 8.318475894067410E+02 RG= 2.493816335096216E+08 RR= 4.512586117002848E+00
2460416.583333333 = A.D. 2024-Apr-16 02:00:00.0000 TDB 
 X = 2.427740205113432E+08 Y = 5.674000534664638E+07 Z =-6.375409117605694E+06
 VX=-9.744110476691208E+00 VY= 6.154722620117462E+01 VZ= 3.047149732403049E-01
 LT= 8.319017586929169E+02 RG= 2.493978730530724E+08 RR= 4.509382420173591E+00
2460416.625000000 = A.D. 2024-Apr-16 03:00:00.0000 TDB 
 X = 2.427388352756110E+08 Y = 5.696156473238297E+07 Z =-6.374307899502346E+06
 VX=-9.803242148852680E+00 VY= 6.154131157627648E+01 VZ= 3.070728051928953E-01
 LT= 8.319558895064306E+02 RG= 2.494141010627092E+08 RR= 4.506178441932207E+00
2460416.666666667 = A.D. 2024-Apr-16 04:00:00.0000 TDB 
 X = 2.427034371719300E+08 Y = 5.718310271904977E+07 Z =-6.373198193818465E+06
 VX=-9.862370438922046E+00 VY= 6.153533782987883E+01 VZ= 3.094302953446224E-01
 LT= 8.320099818438796E+02 RG= 2.494303175375120E+08 RR= 4.502974178429032E+00
2460416.708333333 = A.D. 2024-Apr-16 05:00:00.0000 TDB 
 X = 2.426678262125761E+08 Y = 5.740461909381813E+07 Z =-6.372080001789024E+06
 VX=-9.921495291243259E+00 VY= 6.152930496684799E+01 VZ= 3.117874411927453E-01
 LT= 8.320640357018154E+02 RG= 2.494465224764470E+08 RR= 4.499769625820779E+00
2460416.750000000 = A.D. 2024-Apr-16 06:00:00.0000 TDB 
 X = 2.426320024100251E+08 Y = 5.762611364387695E+07 Z =-6.370953324658044E+06
 VX=-9.980616650159723E+00 VY= 6.152321299205504E+01 VZ= 3.141442402294992E-01
 LT= 8.321180510767431E+02 RG= 2.494627158784663E+08 RR= 4.496564780270777E+00
2460416.791666667 = A.D. 2024-Apr-16 07:00:00.0000 TDB 
 X = 2.425959657769538E+08 Y = 5.784758615643266E+07 Z =-6.369818163678564E+06
 VX=-1.003973446001402E+01 VY= 6.151706191037672E+01 VZ= 3.165006899421741E-01
 LT= 8.321720279651224E+02 RG= 2.494788977425088E+08 RR= 4.493359637949196E+00
2460416.833333333 = A.D. 2024-Apr-16 08:00:00.0000 TDB 
 X = 2.425597163262387E+08 Y = 5.806903641870926E+07 Z =-6.368674520112671E+06
 VX=-1.009884866514766E+01 VY= 6.151085172669624E+01 VZ= 3.188567878131465E-01
 LT= 8.322259663633662E+02 RG= 2.494950680674989E+08 RR= 4.490154195033338E+00
2460416.875000000 = A.D. 2024-Apr-16 09:00:00.0000 TDB 
 X = 2.425232540709572E+08 Y = 5.829046421794834E+07 Z =-6.367522395231541E+06
 VX=-1.015795920990091E+01 VY= 6.150458244590398E+01 VZ= 3.212125313199969E-01
 LT= 8.322798662678423E+02 RG= 2.495112268523477E+08 RR= 4.486948447707734E+00
2460416.916666667 = A.D. 2024-Apr-16 10:00:00.0000 TDB 
 X = 2.424865790243867E+08 Y = 5.851186934140912E+07 Z =-6.366361790315436E+06
 VX=-1.021706603861253E+01 VY= 6.149825407289842E+01 VZ= 3.235679179355344E-01
 LT= 8.323337276748721E+02 RG= 2.495273740959526E+08 RR= 4.483742392164463E+00
2460416.958333333 = A.D. 2024-Apr-16 11:00:00.0000 TDB 
 X = 2.424496912000052E+08 Y = 5.873325157636844E+07 Z =-6.365192706653714E+06
 VX=-1.027616909561965E+01 VY= 6.149186661258680E+01 VZ= 3.259229451278642E-01
 LT= 8.323875505807317E+02 RG= 2.495435097971969E+08 RR= 4.480536024603238E+00
2460417.000000000 = A.D. 2024-Apr-16 12:00:00.0000 TDB 
 X = 2.424125906114911E+08 Y = 5.895461071012089E+07 Z =-6.364015145544872E+06
 VX=-1.033526832525760E+01 VY= 6.148542006988591E+01 VZ= 3.282776103604732E-01
 LT= 8.324413349816516E+02 RG= 2.495596339549507E+08 RR= 4.477329341231596E+00
2460417.041666667 = A.D. 2024-Apr-16 13:00:00.0000 TDB 
 X = 2.423752772727230E+08 Y = 5.917594652997867E+07 Z =-6.362829108296523E+06
 VX=-1.039436367185976E+01 VY= 6.147891444972291E+01 VZ= 3.306319110923077E-01
 LT= 8.324950808738164E+02 RG= 2.495757465680702E+08 RR= 4.474122338265042E+00
2460417.083333333 = A.D. 2024-Apr-16 14:00:00.0000 TDB 
 X = 2.423377511977801E+08 Y = 5.939725882327185E+07 Z =-6.361634596225463E+06
 VX=-1.045345507975743E+01 VY= 6.147234975703599E+01 VZ= 3.329858447777880E-01
 LT= 8.325487882533663E+02 RG= 2.495918476353982E+08 RR= 4.470915011927167E+00
2460417.125000000 = A.D. 2024-Apr-16 15:00:00.0000 TDB 
 X = 2.423000124009420E+08 Y = 5.961854737734824E+07 Z =-6.360431610657642E+06
 VX=-1.051254249327975E+01 VY= 6.146572599677518E+01 VZ= 3.353394088669184E-01
 LT= 8.326024571163947E+02 RG= 2.496079371557635E+08 RR= 4.467707358449784E+00
2460417.166666667 = A.D. 2024-Apr-16 16:00:00.0000 TDB 
 X = 2.422620608966886E+08 Y = 5.983981197957350E+07 Z =-6.359220152928205E+06
 VX=-1.057162585675360E+01 VY= 6.145904317390301E+01 VZ= 3.376926008053367E-01
 LT= 8.326560874589512E+02 RG= 2.496240151279819E+08 RR= 4.464499374072989E+00
2460417.208333333 = A.D. 2024-Apr-16 17:00:00.0000 TDB 
 X = 2.422238966997002E+08 Y = 6.006105241733118E+07 Z =-6.358000224381493E+06
 VX=-1.063070511450353E+01 VY= 6.145230129339533E+01 VZ= 3.400454180343679E-01
 LT= 8.327096792770394E+02 RG= 2.496400815508553E+08 RR= 4.461291055045280E+00
